CTC2_L_00139016-03
1 10062U 24409DG  26075.70041667  .00000000  00000+0  00000-0 0  9998
2 10062  40.0000 180.0000 0000000   0.0000   0.0000 15.08756051    13
CTC2_L_00139016-04
1 10063U 23890TN  26075.70041667  .00000000  00000+0  00000-0 0  9992
2 10063  40.0000 180.0000 0000000   0.0000  90.0000 15.08756051    13
CTC2_L_00139017-01
1 10064U 22210MG  26075.70041667  .00000000  00000+0  00000-0 0  9998
2 10064  40.0000 192.0000 0000000   0.0000 192.0000 15.08756051    10
CTC2_L_00139017-02
1 10065U 26661YR  26075.70041667  .00000000  00000+0  00000-0 0  9993
2 10065  40.0000 192.0000 0000000   0.0000 282.0000 15.08756051    11
CTC2_L_00139017-03
1 10066U 26348CY  26075.70041667  .00000000  00000+0  00000-0 0  9996
2 10066  40.0000 192.0000 0000000   0.0000  12.0000 15.08756051    13
CTC2_L_00139017-04
1 10067U 24492DC  26075.70041667  .00000000  00000+0  00000-0 0  9995
2 10067  40.0000 192.0000 0000000   0.0000 102.0000 15.08756051    14
CTC2_L_00139018-01
1 10068U 23482KM  26075.70041667  .00000000  00000+0  00000-0 0  9994
2 10068  40.0000 204.0000 0000000   0.0000 204.0000 15.08756051    12
CTC2_L_00139018-02
1 10069U 22506BJ  26075.70041667  .00000000  00000+0  00000-0 0  9991
2 10069  40.0000 204.0000 0000000   0.0000 294.0000 15.08756051    12
CTC2_L_00139018-03
1 10070U 23199ST  26075.70041667  .00000000  00000+0  00000-0 0  9992
2 10070  40.0000 204.0000 0000000   0.0000  24.0000 15.08756051    15
CTC2_L_00139018-04
1 10071U 26501VU  26075.70041667  .00000000  00000+0  00000-0 0  9993
2 10071  40.0000 204.0000 0000000   0.0000 114.0000 15.08756051    16
CTC2_L_00139019-01
1 10072U 25591GN  26075.70041667  .00000000  00000+0  00000-0 0  9992
2 10072  40.0000 216.0000 0000000   0.0000 216.0000 15.08756051    13
CTC2_L_00139019-02
1 10073U 22264DN  26075.70041667  .00000000  00000+0  00000-0 0  9997
2 10073  40.0000 216.0000 0000000   0.0000 306.0000 15.08756051    14
CTC2_L_00139019-03
1 10074U 22786TI  26075.70041667  .00000000  00000+0  00000-0 0  9997
2 10074  40.0000 216.0000 0000000   0.0000  36.0000 15.08756051    15
CTC2_L_00139019-04
1 10075U 24778VG  26075.70041667  .00000000  00000+0  00000-0 0  9991
2 10075  40.0000 216.0000 0000000   0.0000 126.0000 15.08756051    16
CTC2_L_00139020-01
1 10076U 26001ED  26075.70041667  .00000000  00000+0  00000-0 0  9993
2 10076  40.0000 228.0000 0000000   0.0000 228.0000 15.08756051    13
CTC2_L_00139020-02
1 10077U 25185MK  26075.70041667  .00000000  00000+0  00000-0 0  9996
2 10077  40.0000 228.0000 0000000   0.0000 318.0000 15.08756051    14
CTC2_L_00139020-03
1 10078U 24390KH  26075.70041667  .00000000  00000+0  00000-0 0  9994
2 10078  40.0000 228.0000 0000000   0.0000  48.0000 15.08756051    15
CTC2_L_00139020-04
1 10079U 23731TB  26075.70041667  .00000000  00000+0  00000-0 0  9993
2 10079  40.0000 228.0000 0000000   0.0000 138.0000 15.08756051    16
CTC2_L_00139021-01
1 10080U 25058CX  26075.70041667  .00000000  00000+0  00000-0 0  9999
2 10080  40.0000 240.0000 0000000   0.0000 240.0000 15.08756051    16
CTC2_L_00139021-02
1 10081U 23644QC  26075.70041667  .00000000  00000+0  00000-0 0  9999
2 10081  40.0000 240.0000 0000000   0.0000 330.0000 15.08756051    17
CTC2_L_00139021-03
1 10082U 22464SI  26075.70041667  .00000000  00000+0  00000-0 0  9999
2 10082  40.0000 240.0000 0000000   0.0000  60.0000 15.08756051    18
CTC2_L_00139021-04
1 10083U 23846TX  26075.70041667  .00000000  00000+0  00000-0 0  9995
2 10083  40.0000 240.0000 0000000   0.0000 150.0000 15.08756051    19
CTC2_L_00139022-01
1 10084U 22431FP  26075.70041667  .00000000  00000+0  00000-0 0  9995
2 10084  40.0000 252.0000 0000000   0.0000 252.0000 15.08756051    16
CTC2_L_00139022-02
1 10085U 24646FE  26075.70041667  .00000000  00000+0  00000-0 0  9996
2 10085  40.0000 252.0000 0000000   0.0000 342.0000 15.08756051    17
CTC2_L_00139022-03
1 10086U 24044KJ  26075.70041667  .00000000  00000+0  00000-0 0  9999
2 10086  40.0000 252.0000 0000000   0.0000  72.0000 15.08756051    18
CTC2_L_00139022-04
1 10087U 22711LN  26075.70041667  .00000000  00000+0  00000-0 0  9999
2 10087  40.0000 252.0000 0000000   0.0000 162.0000 15.08756051    19
CTC2_L_00139023-01
1 10088U 22113GE  26075.70041667  .00000000  00000+0  00000-0 0  9996
2 10088  40.0000 264.0000 0000000   0.0000 264.0000 15.08756051    16
CTC2_L_00139023-02
1 10089U 25018SF  26075.70041667  .00000000  00000+0  00000-0 0  9994
2 10089  40.0000 264.0000 0000000   0.0000 354.0000 15.08756051    17
CTC2_L_00139023-03
1 10090U 25859SM  26075.70041667  .00000000  00000+0  00000-0 0  9999
2 10090  40.0000 264.0000 0000000   0.0000  84.0000 15.08756051    19
CTC2_L_00139023-04
1 10091U 23595TQ  26075.70041667  .00000000  00000+0  00000-0 0  9995
2 10091  40.0000 264.0000 0000000   0.0000 174.0000 15.08756051    10
CTC2_L_00139024-01
1 10092U 26318UV  26075.70041667  .00000000  00000+0  00000-0 0  9992
2 10092  40.0000 276.0000 0000000   0.0000 276.0000 15.08756051    17
CTC2_L_00139024-02
1 10093U 24573VB  26075.70041667  .00000000  00000+0  00000-0 0  9994
2 10093  40.0000 276.0000 0000000   0.0000   6.0000 15.08756051    19
CTC2_L_00139024-03
1 10094U 26035DY  26075.70041667  .00000000  00000+0  00000-0 0  9990
2 10094  40.0000 276.0000 0000000   0.0000  96.0000 15.08756051    19
CTC2_L_00139024-04
1 10095U 23446AU  26075.70041667  .00000000  00000+0  00000-0 0  9994
2 10095  40.0000 276.0000 0000000   0.0000 186.0000 15.08756051    10
CTC2_L_00139025-01
1 10096U 26721MJ  26075.70041667  .00000000  00000+0  00000-0 0  9994
2 10096  40.0000 288.0000 0000000   0.0000 288.0000 15.08756051    17
CTC2_L_00139025-02
1 10097U 23875R   26075.70041667  .00000000  00000+0  00000-0 0  9992
2 10097  40.0000 288.0000 0000000   0.0000  18.0000 15.08756051    19
CTC2_L_00139025-03
1 10098U 25630UJ  26075.70041667  .00000000  00000+0  00000-0 0  9994
2 10098  40.0000 288.0000 0000000   0.0000 108.0000 15.08756051    10
CTC2_L_00139025-04
1 10099U 26280WP  26075.70041667  .00000000  00000+0  00000-0 0  9997
2 10099  40.0000 288.0000 0000000   0.0000 198.0000 15.08756051    10
CTC2_L_00139026-01
1 10100U 24805X   26075.70041667  .00000000  00000+0  00000-0 0  9991
2 10100  40.0000 300.0000 0000000   0.0000 300.0000 15.08756051    13
CTC2_L_00139026-02
1 10101U 26451QV  26075.70041667  .00000000  00000+0  00000-0 0  9991
2 10101  40.0000 300.0000 0000000   0.0000  30.0000 15.08756051    14
CTC2_L_00139026-03
1 10102U 25399MC  26075.70041667  .00000000  00000+0  00000-0 0  9992
2 10102  40.0000 300.0000 0000000   0.0000 120.0000 15.08756051    15
CTC2_L_00139026-04
1 10103U 22188FK  26075.70041667  .00000000  00000+0  00000-0 0  9996
2 10103  40.0000 300.0000 0000000   0.0000 210.0000 15.08756051    16
CTC2_L_00139027-01
1 10104U 26995DM  26075.70041667  .00000000  00000+0  00000-0 0  9997
2 10104  40.0000 312.0000 0000000   0.0000 312.0000 15.08756051    13
CTC2_L_00139027-02
1 10105U 26030BX  26075.70041667  .00000000  00000+0  00000-0 0  9998
2 10105  40.0000 312.0000 0000000   0.0000  42.0000 15.08756051    14
CTC2_L_00139027-03
1 10106U 25360AL  26075.70041667  .00000000  00000+0  00000-0 0  9994
2 10106  40.0000 312.0000 0000000   0.0000 132.0000 15.08756051    15
CTC2_L_00139027-04
1 10107U 26822JL  26075.70041667  .00000000  00000+0  00000-0 0  9999
2 10107  40.0000 312.0000 0000000   0.0000 222.0000 15.08756051    16
CTC2_L_00139028-01
1 10108U 24975MX  26075.70041667  .00000000  00000+0  00000-0 0  9997
2 10108  40.0000 324.0000 0000000   0.0000 324.0000 15.08756051    13
CTC2_L_00139028-02
1 10109U 25356LC  26075.70041667  .00000000  00000+0  00000-0 0  9992
2 10109  40.0000 324.0000 0000000   0.0000  54.0000 15.08756051    14
CTC2_L_00139028-03
1 10110U 22038LB  26075.70041667  .00000000  00000+0  00000-0 0  9998
2 10110  40.0000 324.0000 0000000   0.0000 144.0000 15.08756051    16
CTC2_L_00139028-04
1 10111U 23788UM  26075.70041667  .00000000  00000+0  00000-0 0  9992
2 10111  40.0000 324.0000 0000000   0.0000 234.0000 15.08756051    17
CTC2_L_00139029-01
1 10112U 22997XO  26075.70041667  .00000000  00000+0  00000-0 0  9994
2 10112  40.0000 336.0000 0000000   0.0000 336.0000 15.08756051    14
CTC2_L_00139029-02
1 10113U 24682NL  26075.70041667  .00000000  00000+0  00000-0 0  9998
2 10113  40.0000 336.0000 0000000   0.0000  66.0000 15.08756051    15
CTC2_L_00139029-03
1 10114U 25953FF  26075.70041667  .00000000  00000+0  00000-0 0  9991
2 10114  40.0000 336.0000 0000000   0.0000 156.0000 15.08756051    16
CTC2_L_00139029-04
1 10115U 22285H   26075.70041667  .00000000  00000+0  00000-0 0  9997
2 10115  40.0000 336.0000 0000000   0.0000 246.0000 15.08756051    17
CTC2_L_00139030-01
1 10116U 22423IH  26075.70041667  .00000000  00000+0  00000-0 0  9992
2 10116  40.0000 348.0000 0000000   0.0000 348.0000 15.08756051    14
CTC2_L_00139030-02
1 10117U 22584OK  26075.70041667  .00000000  00000+0  00000-0 0  9991
2 10117  40.0000 348.0000 0000000   0.0000  78.0000 15.08756051    15
CTC2_L_00139030-03
1 10118U 26716SU  26075.70041667  .00000000  00000+0  00000-0 0  9993
2 10118  40.0000 348.0000 0000000   0.0000 168.0000 15.08756051    16
CTC2_L_00139030-04
1 10119U 26973ME  26075.70041667  .00000000  00000+0  00000-0 0  9999
2 10119  40.0000 348.0000 0000000   0.0000 258.0000 15.08756051    17
